{"type":"FeatureCollection","features":[{"type":"Feature","properties":{"Name":"Federal Hill","source":"User-supplied South Baltimore Neighborhood Association neighborhood boundary map, with requested simplifications","note":"Simplified to the supplied neighborhood reference map and requested street limits; all areas stop at the north side of I-95. Not an official service boundary. Key Highway is excluded."},"geometry":{"type":"Polygon","coordinates":[[[-76.61579104477612,39.280329106630084],[-76.60729021558872,39.28055501331561],[-76.60721724709784,39.27919956227453],[-76.6069983416252,39.27758993009913],[-76.6123615257048,39.277025138114716],[-76.61553565505804,39.2767145005825],[-76.61568159203979,39.27891717333984],[-76.61579104477612,39.280329106630084]]]}},{"type":"Feature","properties":{"Name":"Federal Hill South","source":"User-supplied South Baltimore Neighborhood Association neighborhood boundary map, with requested simplifications","note":"Simplified to the supplied neighborhood reference map and requested street limits; all areas stop at the north side of I-95. Not an official service boundary."},"geometry":{"type":"Polygon","coordinates":[[[-76.6123615257048,39.277025138114716],[-76.6069983416252,39.27758993009913],[-76.606815920398,39.275330734842434],[-76.60692537313432,39.27442703634163],[-76.60670646766168,39.27290201869074],[-76.61174129353233,39.27270432878728],[-76.61203316749585,39.274681202723094],[-76.6123615257048,39.277025138114716]]]}},{"type":"Feature","properties":{"Name":"South Baltimore","source":"User-supplied South Baltimore Neighborhood Association neighborhood boundary map, with requested simplifications","note":"Simplified to the supplied neighborhood reference map and requested street limits; all areas stop at the north side of I-95. Not an official service boundary. Excludes the corner south of West Barney Street and west of South Hanover Street."},"geometry":{"type":"Polygon","coordinates":[[[-76.61652072968491,39.276573301248895],[-76.61553565505804,39.2767145005825],[-76.6123615257048,39.277025138114716],[-76.61203316749585,39.274681202723094],[-76.61174129353233,39.27270432878728],[-76.61148590381426,39.27103806315328],[-76.61192371475953,39.26846798254084],[-76.61196019900497,39.2673382469554],[-76.61491542288557,39.26745122133345],[-76.61508325041459,39.26943106774697],[-76.61643316749586,39.26938587929425],[-76.61652072968491,39.269880126412424],[-76.61677611940299,39.272534879854675],[-76.61703150912106,39.274624721384676],[-76.61652072968491,39.276573301248895]]]}},{"type":"Feature","properties":{"Name":"Riverside","source":"User-supplied South Baltimore Neighborhood Association neighborhood boundary map, with requested simplifications","note":"Simplified neighborhood guide. Includes the strip east of Federal Hill South to Key Highway and the mall north of Clemm Street, bounded east by the access road to East Fort Avenue. Shared corner at 39.2699664, -76.6018154. Southern boundary remains I-95."},"geometry":{"type":"Polygon","coordinates":[[[-76.61174129353233,39.27270432878728],[-76.60670646766168,39.27290201869074],[-76.60692537313432,39.27442703634163],[-76.606815920398,39.275330734842434],[-76.6069983416252,39.27758993009913],[-76.60656053067993,39.27758993009913],[-76.60641459369818,39.27623442168719],[-76.60623217247097,39.27578257972183],[-76.60557545605306,39.27524601360314],[-76.60265671641791,39.27343860276008],[-76.60072305140962,39.273014984099454],[-76.60145273631841,39.27168762904502],[-76.60092736318407,39.271506880879784],[-76.60116815920398,39.27106065685059],[-76.6018154,39.26996640000001],[-76.60240497512437,39.26994508434593],[-76.60397744610282,39.26990554474142],[-76.60389718076284,39.26886338569323],[-76.60378772802653,39.2675077084542],[-76.60575787728025,39.26762068255908],[-76.60867661691542,39.26745122133345],[-76.61196019900497,39.2673382469554],[-76.61192371475953,39.26846798254084],[-76.61148590381426,39.27103806315328],[-76.61174129353233,39.27270432878728]]]}},{"type":"Feature","properties":{"Name":"Locust Point","source":"User-supplied South Baltimore Neighborhood Association neighborhood boundary map, with requested simplifications","note":"Simplified neighborhood guide. The mall north of Clemm Street and west of the access road to East Fort Avenue is assigned to Riverside. Shared corner at 39.2699664, -76.6018154. Southern boundary follows I-95."},"geometry":{"type":"Polygon","coordinates":[[[-76.60072305140962,39.273014984099454],[-76.60041771475953,39.27357040412364],[-76.59875290215588,39.27304322542319],[-76.59827860696517,39.273805736860965],[-76.59678275290216,39.27326915560317],[-76.59616252072968,39.27411638728995],[-76.59652736318408,39.274737684015996],[-76.59444776119402,39.27566961877518],[-76.59430182421227,39.275387215611715],[-76.59262354892205,39.27518953272002],[-76.59203980099502,39.276206181649734],[-76.5899966832504,39.27581081993002],[-76.58919402985074,39.274681202723094],[-76.58959535655057,39.273833977865955],[-76.58846434494195,39.2728172945147],[-76.58722388059701,39.27335387923284],[-76.58817247097844,39.27129224182802],[-76.58587396351575,39.27002133923453],[-76.58386733001657,39.26762068255908],[-76.58,39.266490933314984],[-76.58,39.261096129581276],[-76.58218905472636,39.2616045581259],[-76.58580099502487,39.26312982163364],[-76.58747927031509,39.26389244094146],[-76.58963184079602,39.264711541326236],[-76.59291542288557,39.26564360943066],[-76.59517744610281,39.266180249080165],[-76.59696517412935,39.26651917726804],[-76.5978407960199,39.26663215296645],[-76.60083250414593,39.26711229765293],[-76.60378772802653,39.2675077084542],[-76.60389718076284,39.26886338569323],[-76.60397744610282,39.26990554474142],[-76.60240497512437,39.26994508434593],[-76.6018154,39.26996640000001],[-76.60116815920398,39.27106065685059],[-76.60092736318407,39.271506880879784],[-76.60145273631841,39.27168762904502],[-76.60072305140962,39.273014984099454]]]}},{"type":"Feature","properties":{"Name":"Sharp Leadenhall","source":"User-supplied South Baltimore Neighborhood Association neighborhood boundary map, with requested simplifications","note":"Simplified neighborhood guide: north edge follows West Hill Street, south edge follows West West Street. Excludes Cal Ripken Way and South Baltimore territory east of Race Street below Cross Street."},"geometry":{"type":"Polygon","coordinates":[[[-76.61856384742951,39.280865633818685],[-76.61582752902156,39.28097858638739],[-76.61579104477612,39.280329106630084],[-76.61568159203979,39.27891717333984],[-76.61553565505804,39.2767145005825],[-76.61652072968491,39.276573301248895],[-76.6167943615257,39.27548605684841],[-76.61700232172471,39.275539713461356],[-76.6183303482587,39.27591530860144],[-76.61973134328358,39.2763106697315],[-76.61954892205638,39.276770980236265],[-76.61889220563847,39.27806999970589],[-76.61856384742951,39.2794819500709],[-76.61856384742951,39.280865633818685]]]}}]}
